{
  "type": "FeatureCollection",
  "features": [
    {
      "type": "Feature",
      "properties": {
        "norad_id": 42988,
        "name": "SKYSAT-C10",
        "group": "resource",
        "lat": -82.28881200038464,
        "lon": -168.4199956724113,
        "alt_km": 480.65201849733967,
        "timestamp": "2025-12-12T07:43:20.161143+00:00",
        "meta_object_name": "SKYSAT-C10",
        "meta_object_id": "2017-068B",
        "meta_epoch": "2025-12-11T21:07:59.266848",
        "meta_mean_motion": 15.32032287,
        "meta_eccentricity": 0.00053378,
        "meta_inclination": 97.4255,
        "meta_ra_of_asc_node": 116.7289,
        "meta_arg_of_pericenter": 105.8367,
        "meta_mean_anomaly": 254.3464,
        "meta_ephemeris_type": 0,
        "meta_classification_type": "U",
        "meta_norad_cat_id": 42988,
        "meta_element_set_no": 999,
        "meta_rev_at_epoch": 45366,
        "meta_bstar": 0.00051102238,
        "meta_mean_motion_dot": 0.00015748,
        "meta_mean_motion_ddot": 0,
        "tle_line1": "1 42988U 17068B   25345.88054707  .00015748  00000+0  51102-3 0  9997",
        "tle_line2": "2 42988  97.4255 116.7289 0005337 105.8367 254.3464 15.32032287453662"
      },
      "geometry": {
        "type": "Point",
        "coordinates": [
          -168.4199956724113,
          -82.28881200038464
        ]
      }
    },
    {
      "type": "Feature",
      "properties": {
        "norad_id": 42989,
        "name": "SKYSAT-C9",
        "group": "resource",
        "lat": 65.22005243971847,
        "lon": -47.033339164371064,
        "alt_km": 444.9294733513152,
        "timestamp": "2025-12-12T07:43:20.161153+00:00",
        "meta_object_name": "SKYSAT-C9",
        "meta_object_id": "2017-068C",
        "meta_epoch": "2025-12-11T21:50:56.343840",
        "meta_mean_motion": 15.36015875,
        "meta_eccentricity": 0.00106384,
        "meta_inclination": 97.4186,
        "meta_ra_of_asc_node": 116.1574,
        "meta_arg_of_pericenter": 90.1838,
        "meta_mean_anomaly": 270.0625,
        "meta_ephemeris_type": 0,
        "meta_classification_type": "U",
        "meta_norad_cat_id": 42989,
        "meta_element_set_no": 999,
        "meta_rev_at_epoch": 45395,
        "meta_bstar": 0.00055433683,
        "meta_mean_motion_dot": 0.0001942,
        "meta_mean_motion_ddot": 0,
        "tle_line1": "1 42989U 17068C   25345.91037435  .00019420  00000+0  55434-3 0  9994",
        "tle_line2": "2 42989  97.4186 116.1574 0010638  90.1838 270.0625 15.36015875453950"
      },
      "geometry": {
        "type": "Point",
        "coordinates": [
          -47.033339164371064,
          65.22005243971847
        ]
      }
    },
    {
      "type": "Feature",
      "properties": {
        "norad_id": 42990,
        "name": "SKYSAT-C8",
        "group": "resource",
        "lat": 82.5197646142401,
        "lon": 32.806554428931975,
        "alt_km": 459.8448819760897,
        "timestamp": "2025-12-12T07:43:20.161163+00:00",
        "meta_object_name": "SKYSAT-C8",
        "meta_object_id": "2017-068D",
        "meta_epoch": "2025-12-11T21:56:05.347392",
        "meta_mean_motion": 15.32889856,
        "meta_eccentricity": 0.00016329,
        "meta_inclination": 97.4277,
        "meta_ra_of_asc_node": 115.9102,
        "meta_arg_of_pericenter": 352.601,
        "meta_mean_anomaly": 7.5208,
        "meta_ephemeris_type": 0,
        "meta_classification_type": "U",
        "meta_norad_cat_id": 42990,
        "meta_element_set_no": 999,
        "meta_rev_at_epoch": 45358,
        "meta_bstar": 0.00052146215,
        "meta_mean_motion_dot": 0.00016504,
        "meta_mean_motion_ddot": 0,
        "tle_line1": "1 42990U 17068D   25345.91395078  .00016504  00000+0  52146-3 0  9993",
        "tle_line2": "2 42990  97.4277 115.9102 0001632 352.6010   7.5208 15.32889856453582"
      },
      "geometry": {
        "type": "Point",
        "coordinates": [
          32.806554428931975,
          82.5197646142401
        ]
      }
    },
    {
      "type": "Feature",
      "properties": {
        "norad_id": 42991,
        "name": "SKYSAT-C7",
        "group": "resource",
        "lat": -54.02291093532499,
        "lon": 127.71565417139283,
        "alt_km": 478.0067283185608,
        "timestamp": "2025-12-12T07:43:20.161173+00:00",
        "meta_object_name": "SKYSAT-C7",
        "meta_object_id": "2017-068E",
        "meta_epoch": "2025-12-11T20:59:22.535232",
        "meta_mean_motion": 15.32294521,
        "meta_eccentricity": 0.00076872,
        "meta_inclination": 97.4285,
        "meta_ra_of_asc_node": 116.9127,
        "meta_arg_of_pericenter": 59.5995,
        "meta_mean_anomaly": 300.6005,
        "meta_ephemeris_type": 0,
        "meta_classification_type": "U",
        "meta_norad_cat_id": 42991,
        "meta_element_set_no": 999,
        "meta_rev_at_epoch": 45364,
        "meta_bstar": 0.00051898565,
        "meta_mean_motion_dot": 0.00016134,
        "meta_mean_motion_ddot": 0,
        "tle_line1": "1 42991U 17068E   25345.87456638  .00016134  00000+0  51899-3 0  9992",
        "tle_line2": "2 42991  97.4285 116.9127 0007687  59.5995 300.6005 15.32294521453649"
      },
      "geometry": {
        "type": "Point",
        "coordinates": [
          127.71565417139283,
          -54.02291093532499
        ]
      }
    },
    {
      "type": "Feature",
      "properties": {
        "norad_id": 42992,
        "name": "SKYSAT-C6",
        "group": "resource",
        "lat": 62.61801898069845,
        "lon": 103.20321601343034,
        "alt_km": 461.9974478635868,
        "timestamp": "2025-12-12T07:43:20.161183+00:00",
        "meta_object_name": "SKYSAT-C6",
        "meta_object_id": "2017-068F",
        "meta_epoch": "2025-12-11T22:02:13.296480",
        "meta_mean_motion": 15.31460261,
        "meta_eccentricity": 0.00051909,
        "meta_inclination": 97.4318,
        "meta_ra_of_asc_node": 117.3957,
        "meta_arg_of_pericenter": 84.6531,
        "meta_mean_anomaly": 275.5302,
        "meta_ephemeris_type": 0,
        "meta_classification_type": "U",
        "meta_norad_cat_id": 42992,
        "meta_element_set_no": 999,
        "meta_rev_at_epoch": 45363,
        "meta_bstar": 0.00052080863,
        "meta_mean_motion_dot": 0.00015766,
        "meta_mean_motion_ddot": 0,
        "tle_line1": "1 42992U 17068F   25345.91820945  .00015766  00000+0  52081-3 0  9998",
        "tle_line2": "2 42992  97.4318 117.3957 0005190  84.6531 275.5302 15.31460261453639"
      },
      "geometry": {
        "type": "Point",
        "coordinates": [
          103.20321601343034,
          62.61801898069845
        ]
      }
    },
    {
      "type": "Feature",
      "properties": {
        "norad_id": 43111,
        "name": "CARTOSAT-2F",
        "group": "resource",
        "lat": -8.473500618309817,
        "lon": -137.14844419852218,
        "alt_km": 511.74738967666235,
        "timestamp": "2025-12-12T07:43:20.161213+00:00",
        "meta_object_name": "CARTOSAT-2F",
        "meta_object_id": "2018-004A",
        "meta_epoch": "2025-12-11T22:59:31.079904",
        "meta_mean_motion": 15.19265639,
        "meta_eccentricity": 9.762e-05,
        "meta_inclination": 97.4316,
        "meta_ra_of_asc_node": 43.6079,
        "meta_arg_of_pericenter": 137.4555,
        "meta_mean_anomaly": 222.6756,
        "meta_ephemeris_type": 0,
        "meta_classification_type": "U",
        "meta_norad_cat_id": 43111,
        "meta_element_set_no": 999,
        "meta_rev_at_epoch": 43890,
        "meta_bstar": 0.00046494768,
        "meta_mean_motion_dot": 9.742e-05,
        "meta_mean_motion_ddot": 0,
        "tle_line1": "1 43111U 18004A   25345.95799861  .00009742  00000+0  46495-3 0  9998",
        "tle_line2": "2 43111  97.4316  43.6079 0000976 137.4555 222.6756 15.19265639438904"
      },
      "geometry": {
        "type": "Point",
        "coordinates": [
          -137.14844419852218,
          -8.473500618309817
        ]
      }
    },
    {
      "type": "Feature",
      "properties": {
        "norad_id": 43259,
        "name": "GAOFEN-1 02",
        "group": "resource",
        "lat": 18.90978460689168,
        "lon": 41.3214853711497,
        "alt_km": 642.1518174776929,
        "timestamp": "2025-12-12T07:43:20.161225+00:00",
        "meta_object_name": "GAOFEN-1 02",
        "meta_object_id": "2018-031A",
        "meta_epoch": "2025-12-12T02:45:22.780800",
        "meta_mean_motion": 14.76413458,
        "meta_eccentricity": 0.0001853,
        "meta_inclination": 98.0808,
        "meta_ra_of_asc_node": 43.9042,
        "meta_arg_of_pericenter": 219.1355,
        "meta_mean_anomaly": 140.9721,
        "meta_ephemeris_type": 0,
        "meta_classification_type": "U",
        "meta_norad_cat_id": 43259,
        "meta_element_set_no": 999,
        "meta_rev_at_epoch": 41509,
        "meta_bstar": 0.00022493,
        "meta_mean_motion_dot": 1.512e-05,
        "meta_mean_motion_ddot": 0,
        "tle_line1": "1 43259U 18031A   25346.11484700  .00001512  00000+0  22493-3 0  9992",
        "tle_line2": "2 43259  98.0808  43.9042 0001853 219.1355 140.9721 14.76413458415099"
      },
      "geometry": {
        "type": "Point",
        "coordinates": [
          41.3214853711497,
          18.90978460689168
        ]
      }
    }
  ]
}